{"type": "FeatureCollection", "features": [ {"type": "Feature", "properties": {"norad_id": 45358, "name": "COSMOS 2545 (760)", "group": "gnss", "lat": -62.8919928613841, "lon": -151.8631503196293, "alt_km": 19106.654307831228, "timestamp": "2025-12-06T16:45:42.966586+00:00", "meta": {"OBJECT_NAME": "COSMOS 2545 (760)", "OBJECT_ID": "2020-018A", "EPOCH": "2025-12-01T04:43:25.038912", "MEAN_MOTION": 2.13102323, "ECCENTRICITY": 0.00119194, "INCLINATION": 64.4762, "RA_OF_ASC_NODE": 319.3749, "ARG_OF_PERICENTER": 248.338, "MEAN_ANOMALY": 111.5456, "EPHEMERIS_TYPE": 0, "CLASSIFICATION_TYPE": "U", "NORAD_CAT_ID": 45358, "ELEMENT_SET_NO": 999, "REV_AT_EPOCH": 4444, "BSTAR": 0, "MEAN_MOTION_DOT": -2.8e-07, "MEAN_MOTION_DDOT": 0}, "tle": {"line1": "1 45358U 20018A   25335.19681758 -.00000028  00000+0  00000+0 0  9998", "line2": "2 45358  64.4762 319.3749 0011919 248.3380 111.5456  2.13102323 44447"}}, "geometry": {"type": "Point", "coordinates": [-151.8631503196293, -62.8919928613841]}}, {"type": "Feature", "properties": {"norad_id": 45807, "name": "BEIDOU-3 G3 (C61)", "group": "gnss", "lat": 0.40570121734219616, "lon": 77.64724375408043, "alt_km": 35779.5907641245, "timestamp": "2025-12-06T16:45:42.966598+00:00", "meta": {"OBJECT_NAME": "BEIDOU-3 G3 (C61)", "OBJECT_ID": "2020-040A", "EPOCH": "2025-12-06T00:54:51.715584", "MEAN_MOTION": 1.00265272, "ECCENTRICITY": 0.00051291, "INCLINATION": 1.9742, "RA_OF_ASC_NODE": 66.5538, "ARG_OF_PERICENTER": 303.673, "MEAN_ANOMALY": 189.0335, "EPHEMERIS_TYPE": 0, "CLASSIFICATION_TYPE": "U", "NORAD_CAT_ID": 45807, "ELEMENT_SET_NO": 999, "REV_AT_EPOCH": 2013, "BSTAR": 0, "MEAN_MOTION_DOT": -3.45e-06, "MEAN_MOTION_DDOT": 0}, "tle": {"line1": "1 45807U 20040A   25340.03809856 -.00000345  00000+0  00000+0 0  9994", "line2": "2 45807   1.9742  66.5538 0005129 303.6730 189.0335  1.00265272 20131"}}, "geometry": {"type": "Point", "coordinates": [77.64724375408043, 0.40570121734219616]}}, {"type": "Feature", "properties": {"norad_id": 45854, "name": "GPS BIII-3  (PRN 23)", "group": "gnss", "lat": -44.394468824026056, "lon": -3.8613591762798696, "alt_km": 20213.922258094834, "timestamp": "2025-12-06T16:45:42.966615+00:00", "meta": {"OBJECT_NAME": "GPS BIII-3  (PRN 23)", "OBJECT_ID": "2020-041A", "EPOCH": "2025-12-05T00:44:21.679872", "MEAN_MOTION": 2.00561656, "ECCENTRICITY": 0.00602963, "INCLINATION": 56.5415, "RA_OF_ASC_NODE": 36.4861, "ARG_OF_PERICENTER": 203.0901, "MEAN_ANOMALY": 335.2174, "EPHEMERIS_TYPE": 0, "CLASSIFICATION_TYPE": "U", "NORAD_CAT_ID": 45854, "ELEMENT_SET_NO": 999, "REV_AT_EPOCH": 4014, "BSTAR": 0, "MEAN_MOTION_DOT": -6.7e-07, "MEAN_MOTION_DDOT": 0}, "tle": {"line1": "1 45854U 20041A   25339.03080648 -.00000067  00000+0  00000+0 0  9996", "line2": "2 45854  56.5415  36.4861 0060296 203.0901 335.2174  2.00561656 40145"}}, "geometry": {"type": "Point", "coordinates": [-3.8613591762798696, -44.394468824026056]}}, {"type": "Feature", "properties": {"norad_id": 46114, "name": "GALAXY 30 (WAAS/PRN 135)", "group": "gnss", "lat": -0.028992071359427617, "lon": -157.8726867645423, "alt_km": 35779.79495311226, "timestamp": "2025-12-06T16:45:42.966627+00:00", "meta": {"OBJECT_NAME": "GALAXY 30 (WAAS/PRN 135)", "OBJECT_ID": "2020-056C", "EPOCH": "2025-12-06T06:13:24.843648", "MEAN_MOTION": 1.0027024, "ECCENTRICITY": 0.00024879, "INCLINATION": 0.016, "RA_OF_ASC_NODE": 339.3733, "ARG_OF_PERICENTER": 273.2782, "MEAN_ANOMALY": 151.0031, "EPHEMERIS_TYPE": 0, "CLASSIFICATION_TYPE": "U", "NORAD_CAT_ID": 46114, "ELEMENT_SET_NO": 999, "REV_AT_EPOCH": 1935, "BSTAR": 0, "MEAN_MOTION_DOT": 4.5e-07, "MEAN_MOTION_DDOT": 0}, "tle": {"line1": "1 46114U 20056C   25340.25931532  .00000045  00000+0  00000+0 0  9990", "line2": "2 46114   0.0160 339.3733 0002487 273.2782 151.0031  1.00270240 19353"}}, "geometry": {"type": "Point", "coordinates": [-157.8726867645423, -0.028992071359427617]}}, {"type": "Feature", "properties": {"norad_id": 46805, "name": "COSMOS 2547 (705K)", "group": "gnss", "lat": 54.06322623743047, "lon": -22.066133609525075, "alt_km": 19130.206242720742, "timestamp": "2025-12-06T16:45:42.966639+00:00", "meta": {"OBJECT_NAME": "COSMOS 2547 (705K)", "OBJECT_ID": "2020-075A", "EPOCH": "2025-12-04T04:48:34.576416", "MEAN_MOTION": 2.13099889, "ECCENTRICITY": 0.0006264, "INCLINATION": 64.5958, "RA_OF_ASC_NODE": 198.9817, "ARG_OF_PERICENTER": 229.2044, "MEAN_ANOMALY": 130.8379, "EPHEMERIS_TYPE": 0, "CLASSIFICATION_TYPE": "U", "NORAD_CAT_ID": 46805, "ELEMENT_SET_NO": 999, "REV_AT_EPOCH": 3975, "BSTAR": 0, "MEAN_MOTION_DOT": 1.01e-06, "MEAN_MOTION_DDOT": 0}, "tle": {"line1": "1 46805U 20075A   25338.20040019  .00000101  00000+0  00000+0 0  9994", "line2": "2 46805  64.5958 198.9817 0006264 229.2044 130.8379  2.13099889 39750"}}, "geometry": {"type": "Point", "coordinates": [-22.066133609525075, 54.06322623743047]}}, {"type": "Feature", "properties": {"norad_id": 46826, "name": "GPS BIII-4  (PRN 14)", "group": "gnss", "lat": -53.844101073857594, "lon": 135.08982375889326, "alt_km": 20127.45937697442, "timestamp": "2025-12-06T16:45:42.966650+00:00", "meta": {"OBJECT_NAME": "GPS BIII-4  (PRN 14)", "OBJECT_ID": "2020-078A", "EPOCH": "2025-11-12T03:01:29.191584", "MEAN_MOTION": 2.00567032, "ECCENTRICITY": 0.00639112, "INCLINATION": 54.0223, "RA_OF_ASC_NODE": 219.5836, "ARG_OF_PERICENTER": 203.4986, "MEAN_ANOMALY": 326.7753, "EPHEMERIS_TYPE": 0, "CLASSIFICATION_TYPE": "U", "NORAD_CAT_ID": 46826, "ELEMENT_SET_NO": 999, "REV_AT_EPOCH": 3715, "BSTAR": 0, "MEAN_MOTION_DOT": -3.4e-07, "MEAN_MOTION_DDOT": 0}, "tle": {"line1": "1 46826U 20078A   25316.12603231 -.00000034  00000+0  00000+0 0  9994", "line2": "2 46826  54.0223 219.5836 0063911 203.4986 326.7753  2.00567032 37154"}}, "geometry": {"type": "Point", "coordinates": [135.08982375889326, -53.844101073857594]}}, {"type": "Feature", "properties": {"norad_id": 48859, "name": "GPS BIII-5  (PRN 11)", "group": "gnss", "lat": 54.30453359630313, "lon": 85.19306010565236, "alt_km": 20222.60975166503, "timestamp": "2025-12-06T16:45:42.966662+00:00", "meta": {"OBJECT_NAME": "GPS BIII-5  (PRN 11)", "OBJECT_ID": "2021-054A", "EPOCH": "2025-11-30T17:12:22.002912", "MEAN_MOTION": 2.00553932, "ECCENTRICITY": 0.0024653, "INCLINATION": 55.2606, "RA_OF_ASC_NODE": 340.4377, "ARG_OF_PERICENTER": 232.9477, "MEAN_ANOMALY": 227.2059, "EPHEMERIS_TYPE": 0, "CLASSIFICATION_TYPE": "U", "NORAD_CAT_ID": 48859, "ELEMENT_SET_NO": 999, "REV_AT_EPOCH": 3277, "BSTAR": 0, "MEAN_MOTION_DOT": -5.5e-07, "MEAN_MOTION_DDOT": 0}, "tle": {"line1": "1 48859U 21054A   25334.71692133 -.00000055  00000+0  00000+0 0  9994", "line2": "2 48859  55.2606 340.4377 0024653 232.9477 227.2059  2.00553932 32777"}}, "geometry": {"type": "Point", "coordinates": [85.19306010565236, 54.30453359630313]}}, {"type": "Feature", "properties": {"norad_id": 49336, "name": "QZS-1R (QZSS/PRN 196)", "group": "gnss", "lat": 16.318197643278094, "lon": 105.20270793185402, "alt_km": 37007.98145936742, "timestamp": "2025-12-06T16:45:42.966674+00:00", "meta": {"OBJECT_NAME": "QZS-1R (QZSS/PRN 196)", "OBJECT_ID": "2021-096A", "EPOCH": "2025-12-05T14:57:38.876832", "MEAN_MOTION": 1.00259301, "ECCENTRICITY": 0.07539341, "INCLINATION": 37.062, "RA_OF_ASC_NODE": 82.4658, "ARG_OF_PERICENTER": 271.1853, "MEAN_ANOMALY": 80.5969, "EPHEMERIS_TYPE": 0, "CLASSIFICATION_TYPE": "U", "NORAD_CAT_ID": 49336, "ELEMENT_SET_NO": 999, "REV_AT_EPOCH": 1507, "BSTAR": 0, "MEAN_MOTION_DOT": -2.6e-06, "MEAN_MOTION_DDOT": 0}, "tle": {"line1": "1 49336U 21096A   25339.62336663 -.00000260  00000+0  00000+0 0  9997", "line2": "2 49336  37.0620  82.4658 0753934 271.1853  80.5969  1.00259301 15077"}}, "geometry": {"type": "Point", "coordinates": [105.20270793185402, 16.318197643278094]}}, {"type": "Feature", "properties": {"norad_id": 49809, "name": "GSAT0223 (GALILEO 27)", "group": "gnss", "lat": 49.804938865511055, "lon": 36.58827088459591, "alt_km": 23230.278913975537, "timestamp": "2025-12-06T16:45:42.966687+00:00", "meta": {"OBJECT_NAME": "GSAT0223 (GALILEO 27)", "OBJECT_ID": "2021-116A", "EPOCH": "2025-12-03T22:51:48.276576", "MEAN_MOTION": 1.70475481, "ECCENTRICITY": 0.00047656, "INCLINATION": 57.2213, "RA_OF_ASC_NODE": 346.9508, "ARG_OF_PERICENTER": 249.4566, "MEAN_ANOMALY": 290.7436, "EPHEMERIS_TYPE": 0, "CLASSIFICATION_TYPE": "U", "NORAD_CAT_ID": 49809, "ELEMENT_SET_NO": 999, "REV_AT_EPOCH": 2485, "BSTAR": 0, "MEAN_MOTION_DOT": -6.9e-07, "MEAN_MOTION_DDOT": 0}, "tle": {"line1": "1 49809U 21116A   25337.95264209 -.00000069  00000+0  00000+0 0  9992", "line2": "2 49809  57.2213 346.9508 0004765 249.4566 290.7436  1.70475481 24852"}}, "geometry": {"type": "Point", "coordinates": [36.58827088459591, 49.804938865511055]}}, {"type": "Feature", "properties": {"norad_id": 49810, "name": "GSAT0224 (GALILEO 28)", "group": "gnss", "lat": 1.7568321081030032, "lon": 165.7428460546983, "alt_km": 23219.181810641516, "timestamp": "2025-12-06T16:45:42.966699+00:00", "meta": {"OBJECT_NAME": "GSAT0224 (GALILEO 28)", "OBJECT_ID": "2021-116B", "EPOCH": "2025-12-04T15:38:46.077216", "MEAN_MOTION": 1.70475512, "ECCENTRICITY": 0.00040562, "INCLINATION": 57.2223, "RA_OF_ASC_NODE": 346.9305, "ARG_OF_PERICENTER": 253.8254, "MEAN_ANOMALY": 108.1284, "EPHEMERIS_TYPE": 0, "CLASSIFICATION_TYPE": "U", "NORAD_CAT_ID": 49810, "ELEMENT_SET_NO": 999, "REV_AT_EPOCH": 2489, "BSTAR": 0, "MEAN_MOTION_DOT": -7.3e-07, "MEAN_MOTION_DDOT": 0}, "tle": {"line1": "1 49810U 21116B   25338.65192219 -.00000073  00000+0  00000+0 0  9998", "line2": "2 49810  57.2223 346.9305 0004056 253.8254 108.1284  1.70475512 24898"}}, "geometry": {"type": "Point", "coordinates": [165.7428460546983, 1.7568321081030032]}}]}